[{"OBJECT_NAME":"FLOCK 4G-3","OBJECT_ID":"2025-009AG","EPOCH":"2026-03-09T19:14:30.392160","MEAN_MOTION":15.2717931,"ECCENTRICITY":0.00013196,"INCLINATION":97.4062,"RA_OF_ASC_NODE":151.4068,"ARG_OF_PERICENTER":293.2042,"MEAN_ANOMALY":66.9058,"EPHEMERIS_TYPE":0,"CLASSIFICATION_TYPE":"U","NORAD_CAT_ID":62639,"ELEMENT_SET_NO":999,"REV_AT_EPOCH":6372,"BSTAR":0.0004338875,"MEAN_MOTION_DOT":0.00011494,"MEAN_MOTION_DDOT":0},{"OBJECT_NAME":"STARLINK-35969","OBJECT_ID":"2025-265H","EPOCH":"2026-03-09T22:45:08.658432","MEAN_MOTION":15.27593168,"ECCENTRICITY":4.093e-5,"INCLINATION":42.9962,"RA_OF_ASC_NODE":276.4153,"ARG_OF_PERICENTER":51.3736,"MEAN_ANOMALY":308.7153,"EPHEMERIS_TYPE":0,"CLASSIFICATION_TYPE":"U","NORAD_CAT_ID":66523,"ELEMENT_SET_NO":999,"REV_AT_EPOCH":1715,"BSTAR":0.00087780264,"MEAN_MOTION_DOT":0.00023981,"MEAN_MOTION_DDOT":0}]
